NORAD_CAT_ID,OBJECT_NAME,OBJECT_TYPE,EPOCH,MEAN_MOTION,ECCENTRICITY,INCLINATION,RA_OF_ASC_NODE,ARG_OF_PERICENTER,MEAN_ANOMALY,BSTAR,MEAN_MOTION_DOT,MEAN_MOTION_DDOT,TLE_LINE0,TLE_LINE1,TLE_LINE2,SEMIMAJOR_AXIS,PERIOD,APOGEE,PERIGEE,DECAYED
52566.0,STARLINK-3938,PAYLOAD,2022-07-06 14:00:01,15.08840266,0.0001817,53.2179,39.0534,50.2071,323.2181,0.0017070999999999,0.00026985,0.0,0 STARLINK-3938,1 52566U 22051AK  22187.58334491  .00026985  00000-0  17071-2 0  9999,2 52566  53.2179  39.0534 0001817  50.2071 323.2181 15.08840266  1303,6917.88,95.438,541.002,538.488,0.0
52566.0,STARLINK-3938,PAYLOAD,2022-07-06 20:18:01,15.08837562,0.0001872,53.2194,37.8757,45.7095,314.4051,0.00017383,2.479e-05,0.0,0 STARLINK-3938,1 52566U 22051AK  22187.84584940  .00002479  00000-0  17383-3 0  9993,2 52566  53.2194  37.8757 0001872  45.7095 314.4051 15.08837562  8871,6917.888000000001,95.438,541.048,538.4580000000002,0.0
52566.0,STARLINK-3938,PAYLOAD,2022-07-07 14:00:01,15.08835116,0.0001816,53.2184,34.5643,48.5731,359.6784,0.0014009,0.00022075,0.0,0 STARLINK-3938,1 52566U 22051AK  22188.58334491  .00022075  00000-0  14009-2 0  9994,2 52566  53.2184  34.5643 0001816  48.5731 359.6784 15.08835116  1302,6917.895,95.438,541.0169999999998,538.504,0.0
52566.0,STARLINK-3938,PAYLOAD,2022-07-07 22:00:00,15.08836045,0.0002024,53.2185,33.0698,44.1018,15.7507,0.00099,0.00015501,0.0,0 STARLINK-3938,1 52566U 22051AK  22188.91667824  .00015501  00000-0  99000-3 0  9991,2 52566  53.2185  33.0698 0002024  44.1018  15.7507 15.08836045  9032,6917.892,95.438,541.158,538.357,0.0
52566.0,STARLINK-3938,PAYLOAD,2022-07-08 07:16:30,15.08840792,0.000187,53.2194,31.3334,48.7559,311.3594,1.6992e-05,-1.8e-07,0.0,0 STARLINK-3938,1 52566U 22051AK  22189.30312949 -.00000018  00000-0  16992-4 0  9998,2 52566  53.2194  31.3334 0001870  48.7559 311.3594 15.08840792  9099,6917.878000000002,95.438,541.0369999999998,538.4490000000002,0.0
52566.0,STARLINK-3938,PAYLOAD,2022-07-08 14:00:01,15.08848149,0.0001784,53.218,30.0797,45.3445,37.6839,-0.0026639,-0.00042444,0.0,0 STARLINK-3938,1 52566U 22051AK  22189.58334491 -.00042444  00000-0 -26639-2 0  9991,2 52566  53.2180  30.0797 0001784  45.3445  37.6839 15.08848149  1304,6917.855,95.437,540.955,538.486,0.0
52566.0,STARLINK-3938,PAYLOAD,2022-07-08 22:00:01,15.08830421,0.0001916,53.2189,28.5809,39.4676,55.249,0.00063521,9.833e-05,0.0,0 STARLINK-3938,1 52566U 22051AK  22189.91668981  .00009833  00000-0  63521-3 0  9997,2 52566  53.2189  28.5809 0001916  39.4676  55.2490 15.08830421  1309,6917.91,95.438,541.1,538.4490000000002,0.0
52566.0,STARLINK-3938,PAYLOAD,2022-07-09 14:00:01,15.08836514,0.0001892,53.2177,25.5944,40.0057,77.7848,8.0121e-05,9.87e-06,0.0,0 STARLINK-3938,1 52566U 22051AK  22190.58334491  .00000987  00000-0  80121-4 0  9995,2 52566  53.2177  25.5944 0001892  40.0057  77.7848 15.08836514  1302,6917.891,95.438,541.065,538.447,0.0
52566.0,STARLINK-3938,PAYLOAD,2022-07-09 16:00:00,15.08836626,0.0001913,53.2177,25.2215,39.1518,171.5364,1.1007e-05,-1.13e-06,0.0,0 STARLINK-3938,1 52566U 22051AK  22190.66667824 -.00000113  00000-0  11007-4 0  9992,2 52566  53.2177  25.2215 0001913  39.1518 171.5364 15.08836626  9303,6917.891,95.438,541.0790000000002,538.432,0.0
52566.0,STARLINK-3938,PAYLOAD,2022-07-09 20:00:01,15.08844988,0.0001899,53.2189,24.466,40.6575,355.8529,-0.00036315,-6.064e-05,0.0,0 STARLINK-3938,1 52566U 22051AK  22190.83334491 -.00006064  00000-0 -36315-3 0  9992,2 52566  53.2189  24.4660 0001899  40.6575 355.8529 15.08844988  1306,6917.865,95.437,541.044,538.4159999999998,0.0
52566.0,STARLINK-3938,PAYLOAD,2022-07-10 06:00:00,15.08861387,0.0001781999999999,53.2189,22.5944,42.5332,98.4744,-0.0015945,-0.0002559,0.0,0 STARLINK-3938,1 52566U 22051AK  22191.25001157 -.00025590  00000-0 -15945-2 0  9999,2 52566  53.2189  22.5944 0001782  42.5332  98.4744 15.08861387  9380,6917.815,95.436,540.913,538.447,0.0
52566.0,STARLINK-3938,PAYLOAD,2022-07-10 14:00:01,15.08836725,0.0001919,53.2178,21.1059,44.9587,107.6082,2.6204e-05,1.29e-06,0.0,0 STARLINK-3938,1 52566U 22051AK  22191.58334491  .00000129  00000-0  26204-4 0  9996,2 52566  53.2178  21.1059 0001919  44.9587 107.6082 15.08836725  9432,6917.89,95.438,541.0830000000002,538.428,0.0
52566.0,STARLINK-3938,PAYLOAD,2022-07-10 22:00:00,15.08814523,0.000199,53.2188,19.6033,43.2148,120.9697,0.0023118,0.00036671,0.0,0 STARLINK-3938,1 52566U 22051AK  22191.91667824  .00036671  00000-0  23118-2 0  9992,2 52566  53.2188  19.6033 0001990  43.2148 120.9697 15.08814523  1301,6917.958000000001,95.439,541.2,538.447,0.0
52566.0,STARLINK-3938,PAYLOAD,2022-07-11 14:00:01,15.08809931,0.000188,53.218,16.6139,45.5497,141.8213,0.0014158,0.00022298,0.0,0 STARLINK-3938,1 52566U 22051AK  22192.58334491  .00022298  00000-0  14158-2 0  9991,2 52566  53.2180  16.6139 0001880  45.5497 141.8213 15.08809931  1300,6917.972,95.439,541.138,538.5369999999998,0.0
52566.0,STARLINK-3938,PAYLOAD,2022-07-11 22:00:00,15.08829054,0.0001922,53.2183,15.1142,42.5299,156.4561,0.00067979,0.00010544,0.0,0 STARLINK-3938,1 52566U 22051AK  22192.91667824  .00010544  00000-0  67979-3 0  9998,2 52566  53.2183  15.1142 0001922  42.5299 156.4561 15.08829054  9646,6917.9140000000025,95.438,541.1080000000002,538.4490000000002,0.0
52566.0,STARLINK-3938,PAYLOAD,2022-07-12 14:00:01,15.08868297,0.0001706999999999,53.2181,12.12,47.8081,174.3605,-0.0015257,-0.00024506,0.0,0 STARLINK-3938,1 52566U 22051AK  22193.58334491 -.00024506  00000-0 -15257-2 0  9999,2 52566  53.2181  12.1200 0001707  47.8081 174.3605 15.08868297  1309,6917.794,95.436,540.84,538.4780000000002,0.0
52566.0,STARLINK-3938,PAYLOAD,2022-07-12 22:00:00,15.08819009,0.0001852,53.2178,10.6249,39.4361,194.3627,0.0026763,0.00042538,0.0,0 STARLINK-3938,1 52566U 22051AK  22193.91667824  .00042538  00000-0  26763-2 0  9992,2 52566  53.2178  10.6249 0001852  39.4361 194.3627 15.08819009  1303,6917.945,95.439,541.091,538.528,0.0
52566.0,STARLINK-3938,PAYLOAD,2022-07-13 06:00:00,15.08851644,0.0001639,53.2178,9.1267,41.3227,204.0652,-0.0014749,-0.00023692,0.0,0 STARLINK-3938,1 52566U 22051AK  22194.25001157 -.00023692  00000-0 -14749-2 0  9994,2 52566  53.2178   9.1267 0001639  41.3227 204.0652 15.08851644  9847,6917.845,95.437,540.844,538.576,0.0
52566.0,STARLINK-3938,PAYLOAD,2022-07-13 14:00:01,15.08836083,0.0001791,53.2177,7.6323,48.4178,208.5388,-0.000341,-5.711e-05,0.0,0 STARLINK-3938,1 52566U 22051AK  22194.58334491 -.00005711  00000-0 -34100-3 0  9996,2 52566  53.2177   7.6323 0001791  48.4178 208.5388 15.08836083  1302,6917.892,95.438,540.996,538.518,0.0
52566.0,STARLINK-3938,PAYLOAD,2022-07-13 22:00:00,15.08808458,0.0001964,53.2177,6.1357,42.2695,226.276,0.0034021,0.00054227,0.0,0 STARLINK-3938,1 52566U 22051AK  22194.91667824  .00054227  00000-0  34021-2 0  9997,2 52566  53.2177   6.1357 0001964  42.2695 226.2760 15.08808458  1307,6917.977,95.44,541.2,538.4830000000002,0.0
52566.0,STARLINK-3938,PAYLOAD,2022-07-14 08:00:01,15.08806315,0.0001716,53.2177,4.2631,45.308,327.7289,0.001828,0.00028898,0.0,0 STARLINK-3938,1 52566U 22051AK  22195.33334491  .00028898  00000-0  18280-2 0  9999,2 52566  53.2177   4.2631 0001716  45.3080 327.7289 15.08806315 10008,6917.983,95.44,541.035,538.661,0.0
52566.0,STARLINK-3938,PAYLOAD,2022-07-14 14:00:01,15.08830684,0.0001789,53.2181,3.1415,45.5096,246.1908,-0.00089603,-0.00014517,0.0,0 STARLINK-3938,1 52566U 22051AK  22195.58334491 -.00014517  00000-0 -89603-3 0  9999,2 52566  53.2181   3.1415 0001789  45.5096 246.1908 15.08830684  1301,6917.909000000002,95.438,541.011,538.536,0.0
52566.0,STARLINK-3938,PAYLOAD,2022-07-14 22:00:00,15.08805533,0.0001963,53.2181,1.6464,39.8552,263.431,0.0034251,0.00054594,0.0,0 STARLINK-3938,1 52566U 22051AK  22195.91667824  .00054594  00000-0  34251-2 0  9990,2 52566  53.2181   1.6464 0001963  39.8552 263.4310 15.08805533  1309,6917.986,95.44,541.2090000000002,538.493,0.0
52566.0,STARLINK-3938,PAYLOAD,2022-07-15 06:00:00,15.08823751,0.0001804,53.2185,0.1483,43.5551,271.3148,0.0019657,0.00031121,0.0,0 STARLINK-3938,1 52566U 22051AK  22196.25001157  .00031121  00000-0  19657-2 0  9993,2 52566  53.2185   0.1483 0001804  43.5551 271.3148 15.08823751 10144,6917.93,95.439,541.043,538.547,0.0
52566.0,STARLINK-3938,PAYLOAD,2022-07-15 14:00:01,15.08864465,0.0001865,53.2187,358.6524,44.2867,282.1673,-0.0010628,-0.00017174,0.0,0 STARLINK-3938,1 52566U 22051AK  22196.58334491 -.00017174  00000-0 -10628-2 0  9992,2 52566  53.2187 358.6524 0001865  44.2867 282.1673 15.08864465  1306,6917.806,95.436,540.961,538.38,0.0
52566.0,STARLINK-3938,PAYLOAD,2022-07-15 22:00:00,15.08843453,0.0001981,53.2187,357.1573,38.0534,300.023,0.00029238,4.369e-05,0.0,0 STARLINK-3938,1 52566U 22051AK  22196.91667824  .00004369  00000-0  29238-3 0  9996,2 52566  53.2187 357.1573 0001981  38.0534 300.0230 15.08843453  1308,6917.87,95.437,541.105,538.364,0.0
52566.0,STARLINK-3938,PAYLOAD,2022-07-16 06:00:00,15.08830684,0.0001793,53.219,355.6592,41.6827,308.0028,0.0013513,0.00021278,0.0,0 STARLINK-3938,1 52566U 22051AK  22197.25001157  .00021278  00000-0  13513-2 0  9991,2 52566  53.2190 355.6592 0001793  41.6827 308.0028 15.08830684 10295,6917.909000000002,95.438,541.014,538.533,0.0
52566.0,STARLINK-3938,PAYLOAD,2022-07-16 14:00:01,15.08852579,0.0001929,53.2193,354.1636,43.681,317.6003,-0.0020593,-0.00032924,0.0,0 STARLINK-3938,1 52566U 22051AK  22197.58334491 -.00032924  00000-0 -20593-2 0  9995,2 52566  53.2193 354.1636 0001929  43.6810 317.6003 15.08852579  1304,6917.842,95.437,541.0409999999998,538.372,0.0
52566.0,STARLINK-3938,PAYLOAD,2022-07-16 22:00:00,15.08832996,0.0002051,53.2191,352.6683,38.6568,334.2239,0.0014573,0.00022977,0.0,0 STARLINK-3938,1 52566U 22051AK  22197.91667824  .00022977  00000-0  14573-2 0  9997,2 52566  53.2191 352.6683 0002051  38.6568 334.2239 15.08832996  1305,6917.901999999999,95.438,541.186,538.3480000000002,0.0
